NORAD_CAT_ID,OBJECT_NAME,OBJECT_TYPE,EPOCH,MEAN_MOTION,ECCENTRICITY,INCLINATION,RA_OF_ASC_NODE,ARG_OF_PERICENTER,MEAN_ANOMALY,BSTAR,MEAN_MOTION_DOT,MEAN_MOTION_DDOT,TLE_LINE0,TLE_LINE1,TLE_LINE2,SEMIMAJOR_AXIS,PERIOD,APOGEE,PERIGEE,DECAYED
55960.0,STARLINK-5938,PAYLOAD,2024-01-02 11:38:07,14.9832967,0.000307,70.0001,114.319,269.8283,90.2524,4.9963e-05,5.03e-06,0.0,0 STARLINK-5938,1 55960U 23037AY  24002.48481045  .00000503  00000-0  49963-4 0  9995,2 55960  70.0001 114.3190 0003070 269.8283  90.2524 14.98329670 45406,6950.194,96.107,574.193,569.925,0.0
55960.0,STARLINK-5938,PAYLOAD,2024-01-02 14:50:23,14.98330468,0.0003052,70.0001,113.9823,269.3031,90.7778,5.6249e-05,5.78e-06,0.0,0 STARLINK-5938,1 55960U 23037AY  24002.61832967  .00000578  00000-0  56249-4 0  9990,2 55960  70.0001 113.9823 0003052 269.3031  90.7778 14.98330468 45087,6950.191,96.107,574.178,569.935,0.0
55960.0,STARLINK-5938,PAYLOAD,2024-01-02 16:26:31,14.98331484,0.0003045,70.0001,113.814,269.3004,90.7806,6.6371e-05,6.99e-06,0.0,0 STARLINK-5938,1 55960U 23037AY  24002.68508866  .00000699  00000-0  66371-4 0  9996,2 55960  70.0001 113.8140 0003045 269.3004  90.7806 14.98331484 45092,6950.188,96.107,574.17,569.937,0.0
55960.0,STARLINK-5938,PAYLOAD,2024-01-03 11:40:09,14.98324574,0.0002939,70.0004,111.7945,265.8556,94.2267,-8.8621e-05,-1.15e-05,0.0,0 STARLINK-5938,1 55960U 23037AY  24003.48621751 -.00001150  00000-0 -88621-4 0  9991,2 55960  70.0004 111.7945 0002939 265.8556  94.2267 14.98324574 45552,6950.21,96.107,574.117,570.032,0.0
55960.0,STARLINK-5938,PAYLOAD,2024-01-03 13:16:17,14.98324192,0.0002938,70.0004,111.6261,265.5177,94.5646,-9.0909e-05,-1.177e-05,0.0,0 STARLINK-5938,1 55960U 23037AY  24003.55297798 -.00001177  00000-0 -90909-4 0  9990,2 55960  70.0004 111.6261 0002938 265.5177  94.5646 14.98324192 45221,6950.211,96.107,574.118,570.034,0.0
55960.0,STARLINK-5938,PAYLOAD,2024-01-03 16:28:33,14.9832566,0.0002915,70.0004,111.2896,264.8479,95.2347,-7.0501e-05,-9.34e-06,0.0,0 STARLINK-5938,1 55960U 23037AY  24003.68649674 -.00000934  00000-0 -70501-4 0  9994,2 55960  70.0004 111.2896 0002915 264.8479  95.2347 14.98325660 45242,6950.206,96.107,574.097,570.045,0.0
55960.0,STARLINK-5938,PAYLOAD,2024-01-04 11:42:09,14.98331244,0.0002976,70.0001,109.2695,265.9941,94.0878,2.2096e-06,-6.7e-07,0.0,0 STARLINK-5938,1 55960U 23037AY  24004.48761123 -.00000067  00000-0  22096-5 0  9990,2 55960  70.0001 109.2695 0002976 265.9941  94.0878 14.98331244 45708,6950.189,96.107,574.122,569.986,0.0
55960.0,STARLINK-5938,PAYLOAD,2024-01-04 13:18:17,14.98337503,0.0002962,70.0001,109.1017,266.6733,93.4088,-6.3295e-05,-8.48e-06,0.0,0 STARLINK-5938,1 55960U 23037AY  24004.55436894 -.00000848  00000-0 -63295-4 0  9995,2 55960  70.0001 109.1017 0002962 266.6733  93.4088 14.98337503 45370,6950.17,96.107,574.093,569.976,0.0
55960.0,STARLINK-5938,PAYLOAD,2024-01-04 16:30:33,14.98334414,0.0003191,70.0,108.7646,268.6347,91.4446,6.7642e-05,7.14e-06,0.0,0 STARLINK-5938,1 55960U 23037AY  24004.68788698  .00000714  00000-0  67642-4 0  9991,2 55960  70.0000 108.7646 0003191 268.6347  91.4446 14.98334414 45396,6950.179,96.107,574.262,569.826,0.0
55960.0,STARLINK-5938,PAYLOAD,2024-01-05 13:20:19,14.98322536,0.0002782,70.0007,106.5783,260.0541,100.0304,4.4626e-05,4.39e-06,0.0,0 STARLINK-5938,1 55960U 23037AY  24005.55577600  .00000439  00000-0  44626-4 0  9998,2 55960  70.0007 106.5783 0002782 260.0541 100.0304 14.98322536 45862,6950.216,96.107,574.015,570.147,0.0
55960.0,STARLINK-5938,PAYLOAD,2024-01-05 16:32:35,14.98322246,0.0002806,70.0007,106.2414,261.2544,98.8297,3.8556e-05,3.67e-06,0.0,0 STARLINK-5938,1 55960U 23037AY  24005.68929688  .00000367  00000-0  38556-4 0  9994,2 55960  70.0007 106.2414 0002806 261.2544  98.8297 14.98322246 45541,6950.217,96.107,574.032,570.132,0.0
55960.0,STARLINK-5938,PAYLOAD,2024-01-06 11:46:11,14.98333032,0.0002901,69.9999,104.2193,268.8441,91.2385,-3.0642e-05,-4.59e-06,0.0,0 STARLINK-5938,1 55960U 23037AY  24006.49041252 -.00000459  00000-0 -30642-4 0  9998,2 55960  69.9999 104.2193 0002901 268.8441  91.2385 14.98333032 46007,6950.184,96.107,574.065,570.032,0.0
55960.0,STARLINK-5938,PAYLOAD,2024-01-06 16:34:35,14.98334594,0.0002711,70.001,103.7168,279.6187,80.4666,6.103e-05,6.35e-06,0.0,0 STARLINK-5938,1 55960U 23037AY  24006.69069017  .00000635  00000-0  61030-4 0  9998,2 55960  70.0010 103.7168 0002711 279.6187  80.4666 14.98334594 45696,6950.179,96.107,573.928,570.159,0.0
55960.0,STARLINK-5938,PAYLOAD,2024-01-07 11:48:12,14.98328644,0.0002912,70.0007,101.6969,264.2671,95.8156,4.3269e-05,4.23e-06,0.0,0 STARLINK-5938,1 55960U 23037AY  24007.49181033  .00000423  00000-0  43269-4 0  9999,2 55960  70.0007 101.6969 0002912 264.2671  95.8156 14.98328644 46154,6950.197,96.107,574.086,570.038,0.0
55960.0,STARLINK-5938,PAYLOAD,2024-01-07 13:24:20,14.98328465,0.000274,70.0008,101.5281,260.0824,100.0026,4.8814e-05,4.9e-06,0.0,0 STARLINK-5938,1 55960U 23037AY  24007.55857086  .00000490  00000-0  48814-4 0  9999,2 55960  70.0008 101.5281 0002740 260.0824 100.0026 14.98328465 45823,6950.198,96.107,573.967,570.158,0.0
55960.0,STARLINK-5938,PAYLOAD,2024-01-07 16:36:36,14.98328432,0.0002781,70.0007,101.1913,263.2149,96.8693,4.5951e-05,4.55e-06,0.0,0 STARLINK-5938,1 55960U 23037AY  24007.69209043  .00000455  00000-0  45951-4 0  9998,2 55960  70.0007 101.1913 0002781 263.2149  96.8693 14.98328432 45848,6950.198,96.107,573.996,570.13,0.0
55960.0,STARLINK-5938,PAYLOAD,2024-01-08 11:50:13,14.98330006,0.0002794,70.0004,99.1705,261.4712,98.613,-4.4108e-06,-1.46e-06,0.0,0 STARLINK-5938,1 55960U 23037AY  24008.49320931 -.00000146  00000-0 -44108-5 0  9990,2 55960  70.0004  99.1705 0002794 261.4712  98.6130 14.98330006 46308,6950.193,96.107,574.0,570.116,0.0
55960.0,STARLINK-5938,PAYLOAD,2024-01-08 13:26:21,14.9832946,0.000281,70.0004,99.0025,260.9219,99.1622,1.8141e-05,1.23e-06,0.0,0 STARLINK-5938,1 55960U 23037AY  24008.55996894  .00000123  00000-0  18141-4 0  9994,2 55960  70.0004  99.0025 0002810 260.9219  99.1622 14.98329460 45973,6950.195,96.107,574.013,570.107,0.0
55960.0,STARLINK-5938,PAYLOAD,2024-01-08 15:02:29,14.98342647,0.000271,70.0005,98.8343,260.1726,99.9127,-0.00017771,-2.213e-05,0.0,0 STARLINK-5938,1 55960U 23037AY  24008.62672496 -.00002213  00000-0 -17771-3 0  9992,2 55960  70.0005  98.8343 0002710 260.1726  99.9127 14.98342647 46328,6950.154,96.106,573.902,570.135,0.0
55960.0,STARLINK-5938,PAYLOAD,2024-01-09 11:52:14,14.98330134,0.000286,70.0004,96.6462,262.9178,97.1656,-1.4178e-05,-2.62e-06,0.0,0 STARLINK-5938,1 55960U 23037AY  24009.49460807 -.00000262  00000-0 -14178-4 0  9990,2 55960  70.0004  96.6462 0002860 262.9178  97.1656 14.98330134 46451,6950.192,96.107,574.045,570.07,0.0
55960.0,STARLINK-5938,PAYLOAD,2024-01-09 13:28:22,14.98331293,0.0002831,70.0005,96.4779,262.1153,97.9685,1.3729e-06,-7.7e-07,0.0,0 STARLINK-5938,1 55960U 23037AY  24009.56136681 -.00000077  00000-0  13729-5 0  9993,2 55960  70.0005  96.4779 0002831 262.1153  97.9685 14.98331293 46125,6950.189,96.107,574.021,570.086,0.0
55960.0,STARLINK-5938,PAYLOAD,2024-01-09 15:04:30,14.98331977,0.0002836,70.0001,96.3088,263.3955,96.6882,2.3297e-05,1.85e-06,0.0,0 STARLINK-5938,1 55960U 23037AY  24009.62812603  .00000185  00000-0  23297-4 0  9994,2 55960  70.0001  96.3088 0002836 263.3955  96.6882 14.98331977 46136,6950.187,96.107,574.023,570.081,0.0
55960.0,STARLINK-5938,PAYLOAD,2024-01-10 10:18:07,14.98327657,0.0002975,70.0007,94.291,262.0629,98.0193,-3.257e-05,-4.82e-06,0.0,0 STARLINK-5938,1 55960U 23037AY  24010.42925025 -.00000482  00000-0 -32570-4 0  9993,2 55960  70.0007  94.2910 0002975 262.0629  98.0193 14.98327657 46255,6950.2,96.107,574.133,569.997,0.0
55960.0,STARLINK-5938,PAYLOAD,2024-01-10 15:06:30,14.98332697,0.0002657,70.0007,93.7842,261.3283,98.7575,5.1827e-05,5.26e-06,0.0,0 STARLINK-5938,1 55960U 23037AY  24010.62952512  .00000526  00000-0  51827-4 0  9999,2 55960  70.0007  93.7842 0002657 261.3283  98.7575 14.98332697 46620,6950.185,96.107,573.896,570.203,0.0
55960.0,STARLINK-5938,PAYLOAD,2024-01-11 13:32:23,14.9833288,0.0002689,70.0006,91.4285,260.5698,99.5157,3.865e-05,3.68e-06,0.0,0 STARLINK-5938,1 55960U 23037AY  24011.56416344  .00000368  00000-0  38650-4 0  9994,2 55960  70.0006  91.4285 0002689 260.5698  99.5157 14.98332880 46428,6950.184,96.107,573.918,570.18,0.0
55960.0,STARLINK-5938,PAYLOAD,2024-01-11 15:08:31,14.98333931,0.0002698,70.0003,91.2604,261.7268,98.3585,4.1156e-05,3.98e-06,0.0,0 STARLINK-5938,1 55960U 23037AY  24011.63092245  .00000398  00000-0  41156-4 0  9990,2 55960  70.0003  91.2604 0002698 261.7268  98.3585 14.98333931 46772,6950.181,96.107,573.921,570.171,0.0
55960.0,STARLINK-5938,PAYLOAD,2024-01-12 11:58:17,14.98319121,0.0002561,70.001,89.0722,261.7896,98.2973,7.6143e-05,8.15e-06,0.0,0 STARLINK-5938,1 55960U 23037AY  24012.49881185  .00000815  00000-0  76143-4 0  9992,2 55960  70.0010  89.0722 0002561 261.7896  98.2973 14.98319121 46902,6950.227,96.108,573.871,570.312,0.0
55960.0,STARLINK-5938,PAYLOAD,2024-01-12 13:34:25,14.98324087,0.0002526,70.001,88.9046,259.2761,100.8114,-5.8639e-06,-1.63e-06,0.0,0 STARLINK-5938,1 55960U 23037AY  24012.56557136 -.00000163  00000-0 -58639-5 0  9995,2 55960  70.0010  88.9046 0002526 259.2761 100.8114 14.98324087 46570,6950.211,96.107,573.832,570.321,0.0
55960.0,STARLINK-5938,PAYLOAD,2024-01-12 15:10:33,14.98324128,0.0002521,70.001,88.7363,259.1235,100.964,2.1486e-06,-6.7e-07,0.0,0 STARLINK-5938,1 55960U 23037AY  24012.63233132 -.00000067  00000-0  21486-5 0  9992,2 55960  70.0010  88.7363 0002521 259.1235 100.9640 14.98324128 46582,6950.211,96.107,573.828,570.324,0.0
55960.0,STARLINK-5938,PAYLOAD,2024-01-13 05:35:45,14.9832879,0.0002476,70.0008,87.2197,263.7741,96.3136,-8.801e-06,-1.98e-06,0.0,0 STARLINK-5938,1 55960U 23037AY  24013.23316892 -.00000198  00000-0 -88010-5 0  9996,2 55960  70.0008  87.2197 0002476 263.7741  96.3136 14.98328790 47016,6950.197,96.107,573.783,570.341,0.0
